start=new Date('2022-09-07T00:00:00.000Z').valueOf();
sats=[{"OBJECT_NAME":"STARLINK-2124","ECCENTRICITY":"0.00012980","MEAN_MOTION":"15.06382417","ELEMENT_SET_NO":"999","SEMIMAJOR_AXIS":"6925.402","TIME_SYSTEM":"UTC","INCLINATION":"53.0558","MEAN_ELEMENT_THEORY":"SGP4","NORAD_CAT_ID":"47402","TLE_LINE2":"2 47402  53.0558  17.3306 0001298  79.8469 280.2666 15.06382417 90554","EPOCH":"2022-09-06T18:51:51.848064","LAUNCH_DATE":"2021-01-20","APOAPSIS":"548.166","RA_OF_ASC_NODE":"17.3306","MEAN_MOTION_DDOT":"0.0000000000000","CENTER_NAME":"EARTH","SITE":"AFETR","PERIOD":"95.593","ARG_OF_PERICENTER":"79.8469","REV_AT_EPOCH":"9055","TLE_LINE1":"1 47402U 21005BF  22249.78601676 -.00005434  00000-0 -34636-3 0  9998","PERIAPSIS":"546.369","OBJECT_TYPE":"PAYLOAD","COUNTRY_CODE":"US","CLASSIFICATION_TYPE":"U","FILE":"3561419","RCS_SIZE":"LARGE","BSTAR":"-0.00034636000000","GP_ID":"211920669","EPHEMERIS_TYPE":"0","MEAN_ANOMALY":"280.2666","REF_FRAME":"TEME","DECAY_DATE":null,"OBJECT_ID":"2021-005BF","MEAN_MOTION_DOT":"-0.00005434"},{"REF_FRAME":"TEME","MEAN_MOTION_DOT":"-0.00005664","OBJECT_ID":"2021-005BG","DECAY_DATE":null,"EPHEMERIS_TYPE":"0","GP_ID":"211919917","BSTAR":"-0.00036185000000","MEAN_ANOMALY":"273.2860","RCS_SIZE":"LARGE","FILE":"3561419","CLASSIFICATION_TYPE":"U","OBJECT_TYPE":"PAYLOAD","PERIAPSIS":"546.269","TLE_LINE1":"1 47403U 21005BG  22249.66070187 -.00005664  00000-0 -36185-3 0  9999","COUNTRY_CODE":"US","RA_OF_ASC_NODE":"17.9028","ARG_OF_PERICENTER":"86.8297","REV_AT_EPOCH":"9053","CENTER_NAME":"EARTH","SITE":"AFETR","PERIOD":"95.594","MEAN_MOTION_DDOT":"0.0000000000000","LAUNCH_DATE":"2021-01-20","EPOCH":"2022-09-06T15:51:24.641568","TLE_LINE2":"2 47403  53.0560  17.9028 0001465  86.8297 273.2860 15.06377266 90530","APOAPSIS":"548.298","TIME_SYSTEM":"UTC","SEMIMAJOR_AXIS":"6925.418","ELEMENT_SET_NO":"999","NORAD_CAT_ID":"47403","MEAN_ELEMENT_THEORY":"SGP4","INCLINATION":"53.0560","OBJECT_NAME":"STARLINK-2127","MEAN_MOTION":"15.06377266","ECCENTRICITY":"0.00014650"},{"DECAY_DATE":null,"OBJECT_ID":"2021-005BH","MEAN_MOTION_DOT":"-0.00002196","REF_FRAME":"TEME","MEAN_ANOMALY":"271.5876","BSTAR":"-0.00012861000000","GP_ID":"211920165","EPHEMERIS_TYPE":"0","CLASSIFICATION_TYPE":"U","FILE":"3561419","RCS_SIZE":"LARGE","COUNTRY_CODE":"US","TLE_LINE1":"1 47404U 21005BH  22249.72336356 -.00002196  00000-0 -12861-3 0  9992","PERIAPSIS":"546.236","OBJECT_TYPE":"PAYLOAD","MEAN_MOTION_DDOT":"0.0000000000000","CENTER_NAME":"EARTH","SITE":"AFETR","PERIOD":"95.593","ARG_OF_PERICENTER":"88.5281","REV_AT_EPOCH":"9054","RA_OF_ASC_NODE":"17.6220","APOAPSIS":"548.268","TLE_LINE2":"2 47404  53.0568  17.6220 0001467  88.5281 271.5876 15.06387328 90543","EPOCH":"2022-09-06T17:21:38.611584","LAUNCH_DATE":"2021-01-20","INCLINATION":"53.0568","MEAN_ELEMENT_THEORY":"SGP4","NORAD_CAT_ID":"47404","SEMIMAJOR_AXIS":"6925.387","ELEMENT_SET_NO":"999","TIME_SYSTEM":"UTC","ECCENTRICITY":"0.00014670","MEAN_MOTION":"15.06387328","OBJECT_NAME":"STARLINK-2128"},{"MEAN_ANOMALY":"273.3562","BSTAR":"-0.00014331000000","GP_ID":"211920918","EPHEMERIS_TYPE":"0","DECAY_DATE":null,"OBJECT_ID":"2021-005BJ","MEAN_MOTION_DOT":"-0.00002415","REF_FRAME":"TEME","COUNTRY_CODE":"US","TLE_LINE1":"1 47405U 21005BJ  22249.77219733 -.00002415  00000-0 -14331-3 0  9995","PERIAPSIS":"546.131","OBJECT_TYPE":"PAYLOAD","CLASSIFICATION_TYPE":"U","FILE":"3561419","RCS_SIZE":"LARGE","APOAPSIS":"548.360","TLE_LINE2":"2 47405  53.0549  47.3845 0001610  86.7611 273.3562 15.06389576 90126","EPOCH":"2022-09-06T18:31:57.849312","LAUNCH_DATE":"2021-01-20","MEAN_MOTION_DDOT":"0.0000000000000","SITE":"AFETR","CENTER_NAME":"EARTH","PERIOD":"95.593","ARG_OF_PERICENTER":"86.7611","REV_AT_EPOCH":"9012","RA_OF_ASC_NODE":"47.3845","ECCENTRICITY":"0.00016100","MEAN_MOTION":"15.06389576","OBJECT_NAME":"STARLINK-2130","INCLINATION":"53.0549","MEAN_ELEMENT_THEORY":"SGP4","NORAD_CAT_ID":"47405","ELEMENT_SET_NO":"999","SEMIMAJOR_AXIS":"6925.381","TIME_SYSTEM":"UTC"},{"RA_OF_ASC_NODE":"17.2738","MEAN_MOTION_DDOT":"0.0000000000000","PERIOD":"95.594","SITE":"AFETR","CENTER_NAME":"EARTH","ARG_OF_PERICENTER":"104.2115","REV_AT_EPOCH":"9055","TLE_LINE2":"2 47406  53.0552  17.2738 0001207 104.2115 255.9008 15.06378549 90551","LAUNCH_DATE":"2021-01-20","EPOCH":"2022-09-06T19:13:06.277440","APOAPSIS":"548.115","ELEMENT_SET_NO":"999","SEMIMAJOR_AXIS":"6925.414","TIME_SYSTEM":"UTC","INCLINATION":"53.0552","NORAD_CAT_ID":"47406","MEAN_ELEMENT_THEORY":"SGP4","OBJECT_NAME":"STARLINK-2133","ECCENTRICITY":"0.00012070","MEAN_MOTION":"15.06378549","REF_FRAME":"TEME","DECAY_DATE":null,"OBJECT_ID":"2021-005BK","MEAN_MOTION_DOT":"-0.00005739","BSTAR":"-0.00036690000000","GP_ID":"211921169","EPHEMERIS_TYPE":"0","MEAN_ANOMALY":"255.9008","CLASSIFICATION_TYPE":"U","FILE":"3561419","RCS_SIZE":"LARGE","TLE_LINE1":"1 47406U 21005BK  22249.80076710 -.00005739  00000-0 -36690-3 0  9990","PERIAPSIS":"546.443","OBJECT_TYPE":"PAYLOAD","COUNTRY_CODE":"US"},{"OBJECT_NAME":"STARLINK-2134","ECCENTRICITY":"0.00013660","MEAN_MOTION":"15.06381307","TIME_SYSTEM":"UTC","ELEMENT_SET_NO":"999","SEMIMAJOR_AXIS":"6925.406","INCLINATION":"53.0566","NORAD_CAT_ID":"47407","MEAN_ELEMENT_THEORY":"SGP4","EPOCH":"2022-09-06T17:48:11.674656","LAUNCH_DATE":"2021-01-20","TLE_LINE2":"2 47407  53.0566  17.5375 0001366  91.5003 268.6143 15.06381307 90543","APOAPSIS":"548.217","RA_OF_ASC_NODE":"17.5375","SITE":"AFETR","PERIOD":"95.593","CENTER_NAME":"EARTH","REV_AT_EPOCH":"9054","ARG_OF_PERICENTER":"91.5003","MEAN_MOTION_DDOT":"0.0000000000000","OBJECT_TYPE":"PAYLOAD","TLE_LINE1":"1 47407U 21005BL  22249.74180179 -.00002261  00000-0 -13303-3 0  9992","PERIAPSIS":"546.325","COUNTRY_CODE":"US","RCS_SIZE":"LARGE","CLASSIFICATION_TYPE":"U","FILE":"3561419","EPHEMERIS_TYPE":"0","BSTAR":"-0.00013303000000","GP_ID":"211919418","MEAN_ANOMALY":"268.6143","REF_FRAME":"TEME","OBJECT_ID":"2021-005BL","MEAN_MOTION_DOT":"-0.00002261","DECAY_DATE":null},{"RCS_SIZE":"LARGE","CLASSIFICATION_TYPE":"U","FILE":"3561419","OBJECT_TYPE":"PAYLOAD","TLE_LINE1":"1 47408U 21005BM  22249.64596316 -.00003801  00000-0 -23646-3 0  9998","PERIAPSIS":"546.045","COUNTRY_CODE":"US","REF_FRAME":"TEME","OBJECT_ID":"2021-005BM","MEAN_MOTION_DOT":"-0.00003801","DECAY_DATE":null,"EPHEMERIS_TYPE":"0","BSTAR":"-0.00023646000000","GP_ID":"211919666","MEAN_ANOMALY":"249.6614","TIME_SYSTEM":"UTC","SEMIMAJOR_AXIS":"6925.388","ELEMENT_SET_NO":"999","INCLINATION":"53.0560","MEAN_ELEMENT_THEORY":"SGP4","NORAD_CAT_ID":"47408","OBJECT_NAME":"STARLINK-2135","ECCENTRICITY":"0.00017440","MEAN_MOTION":"15.06387049","RA_OF_ASC_NODE":"17.9691","CENTER_NAME":"EARTH","SITE":"AFETR","PERIOD":"95.593","ARG_OF_PERICENTER":"110.4563","REV_AT_EPOCH":"9053","MEAN_MOTION_DDOT":"0.0000000000000","LAUNCH_DATE":"2021-01-20","EPOCH":"2022-09-06T15:30:11.217024","TLE_LINE2":"2 47408  53.0560  17.9691 0001744 110.4563 249.6614 15.06387049 90535","APOAPSIS":"548.461"},{"RCS_SIZE":"LARGE","CLASSIFICATION_TYPE":"U","FILE":"3561419","OBJECT_TYPE":"PAYLOAD","TLE_LINE1":"1 47548U 21009A   22249.58514411 -.00004790  00000-0 -30303-3 0  9992","PERIAPSIS":"546.319","COUNTRY_CODE":"US","REF_FRAME":"TEME","OBJECT_ID":"2021-009A","MEAN_MOTION_DOT":"-0.00004790","DECAY_DATE":null,"EPHEMERIS_TYPE":"0","BSTAR":"-0.00030303000000","GP_ID":"211920181","MEAN_ANOMALY":"279.9629","TIME_SYSTEM":"UTC","ELEMENT_SET_NO":"999","SEMIMAJOR_AXIS":"6925.395","INCLINATION":"53.0576","MEAN_ELEMENT_THEORY":"SGP4","NORAD_CAT_ID":"47548","OBJECT_NAME":"STARLINK-1782","ECCENTRICITY":"0.00013590","MEAN_MOTION":"15.06384953","RA_OF_ASC_NODE":"358.2396","SITE":"AFETR","PERIOD":"95.593","CENTER_NAME":"EARTH","ARG_OF_PERICENTER":"80.1513","REV_AT_EPOCH":"8799","MEAN_MOTION_DDOT":"0.0000000000000","EPOCH":"2022-09-06T14:02:36.451104","LAUNCH_DATE":"2021-02-04","TLE_LINE2":"2 47548  53.0576 358.2396 0001359  80.1513 279.9629 15.06384953 87999","APOAPSIS":"548.201"},{"MEAN_MOTION_DOT":"-0.00003550","OBJECT_ID":"2021-009B","DECAY_DATE":null,"REF_FRAME":"TEME","MEAN_ANOMALY":"268.9845","EPHEMERIS_TYPE":"0","GP_ID":"211920934","BSTAR":"-0.00021955000000","RCS_SIZE":"LARGE","FILE":"3561419","CLASSIFICATION_TYPE":"U","COUNTRY_CODE":"US","OBJECT_TYPE":"PAYLOAD","PERIAPSIS":"546.271","TLE_LINE1":"1 47549U 21009B   22249.71414399 -.00003550  00000-0 -21955-3 0  9998","ARG_OF_PERICENTER":"91.1302","REV_AT_EPOCH":"8801","PERIOD":"95.592","SITE":"AFETR","CENTER_NAME":"EARTH","MEAN_MOTION_DDOT":"0.0000000000000","RA_OF_ASC_NODE":"357.6553","APOAPSIS":"548.181","LAUNCH_DATE":"2021-02-04","EPOCH":"2022-09-06T17:08:22.040736","TLE_LINE2":"2 47549  53.0565 357.6553 0001379  91.1302 268.9845 15.06395817 88019","MEAN_ELEMENT_THEORY":"SGP4","NORAD_CAT_ID":"47549","INCLINATION":"53.0565","TIME_SYSTEM":"UTC","ELEMENT_SET_NO":"999","SEMIMAJOR_AXIS":"6925.361","MEAN_MOTION":"15.06395817","ECCENTRICITY":"0.00013790","OBJECT_NAME":"STARLINK-1806"},{"MEAN_ANOMALY":"279.0475","GP_ID":"211921185","BSTAR":"-0.00024670000000","EPHEMERIS_TYPE":"0","DECAY_DATE":null,"MEAN_MOTION_DOT":"-0.00003953","OBJECT_ID":"2021-009C","REF_FRAME":"TEME","COUNTRY_CODE":"US","PERIAPSIS":"546.235","TLE_LINE1":"1 47550U 21009C   22249.65978466 -.00003953  00000-0 -24670-3 0  9997","OBJECT_TYPE":"PAYLOAD","FILE":"3561419","CLASSIFICATION_TYPE":"U","RCS_SIZE":"LARGE","APOAPSIS":"548.266","TLE_LINE2":"2 47550  53.0555 347.8883 0001466  81.0680 279.0475 15.06387932 88146","EPOCH":"2022-09-06T15:50:05.394624","LAUNCH_DATE":"2021-02-04","MEAN_MOTION_DDOT":"0.0000000000000","ARG_OF_PERICENTER":"81.0680","REV_AT_EPOCH":"8814","SITE":"AFETR","PERIOD":"95.593","CENTER_NAME":"EARTH","RA_OF_ASC_NODE":"347.8883","MEAN_MOTION":"15.06387932","ECCENTRICITY":"0.00014660","OBJECT_NAME":"STARLINK-1909","NORAD_CAT_ID":"47550","MEAN_ELEMENT_THEORY":"SGP4","INCLINATION":"53.0555","ELEMENT_SET_NO":"999","SEMIMAJOR_AXIS":"6925.386","TIME_SYSTEM":"UTC"}];
